NORAD_CAT_ID,OBJECT_NAME,OBJECT_TYPE,EPOCH,MEAN_MOTION,ECCENTRICITY,INCLINATION,RA_OF_ASC_NODE,ARG_OF_PERICENTER,MEAN_ANOMALY,BSTAR,MEAN_MOTION_DOT,MEAN_MOTION_DDOT,TLE_LINE0,TLE_LINE1,TLE_LINE2,SEMIMAJOR_AXIS,PERIOD,APOGEE,PERIGEE,DECAYED
53156.0,STARLINK-4087,PAYLOAD,2022-12-11 10:02:05,15.08852445,0.0001891,53.2193,80.5134,48.6715,311.444,-1.1868e-05,-4.77e-06,0.0,0 STARLINK-4087,1 53156U 22083AA  22345.41812090 -.00000477  00000-0 -11868-4 0  9994,2 53156  53.2193  80.5134 0001891  48.6715 311.4440 15.08852445 23202,6917.842,95.437,541.016,538.399,0.0
53156.0,STARLINK-4087,PAYLOAD,2022-12-11 13:12:52,15.08833235,0.000219,53.2203,79.9214,40.5173,319.5982,0.00022178,3.243e-05,0.0,0 STARLINK-4087,1 53156U 22083AA  22345.55060880  .00003243  00000-0  22178-3 0  9998,2 53156  53.2203  79.9214 0002190  40.5173 319.5982 15.08833235 22594,6917.901,95.438,541.281,538.251,0.0
53156.0,STARLINK-4087,PAYLOAD,2022-12-11 17:59:01,15.08837758,0.0002109,53.2203,79.0286,42.7416,317.3739,0.00024585,3.626e-05,0.0,0 STARLINK-4087,1 53156U 22083AA  22345.74932608  .00003626  00000-0  24585-3 0  9994,2 53156  53.2203  79.0286 0002109  42.7416 317.3739 15.08837758 23252,6917.887,95.438,541.211,538.293,0.0
53156.0,STARLINK-4087,PAYLOAD,2022-12-12 09:52:53,15.08835345,0.0001646,53.2204,76.0544,68.6546,291.4622,6.2901e-05,7.13e-06,0.0,0 STARLINK-4087,1 53156U 22083AA  22346.41173567  .00000713  00000-0  62901-4 0  9999,2 53156  53.2204  76.0544 0001646  68.6546 291.4622 15.08835345 23357,6917.895,95.438,540.898,538.621,0.0
53156.0,STARLINK-4087,PAYLOAD,2022-12-12 11:28:17,15.08835585,0.0001683,53.2203,75.7571,68.4623,291.6548,6.1789e-05,6.95e-06,0.0,0 STARLINK-4087,1 53156U 22083AA  22346.47797535  .00000695  00000-0  61789-4 0  9994,2 53156  53.2203  75.7571 0001683  68.4623 291.6548 15.08835585 22733,6917.894,95.438,540.923,538.595,0.0
53156.0,STARLINK-4087,PAYLOAD,2022-12-12 14:39:03,15.08835171,0.0001778,53.2207,75.1633,60.9938,299.1233,6.636e-05,7.68e-06,0.0,0 STARLINK-4087,1 53156U 22083AA  22346.61045607  .00000768  00000-0  66360-4 0  9997,2 53156  53.2207  75.1633 0001778  60.9938 299.1233 15.08835171 22758,6917.895,95.438,540.99,538.53,0.0
53156.0,STARLINK-4087,PAYLOAD,2022-12-13 09:43:41,15.08837688,0.0002122,53.2198,71.5935,37.353,322.761,-5.7893e-05,-1.209e-05,0.0,0 STARLINK-4087,1 53156U 22083AA  22347.40533782 -.00001209  00000-0 -57893-4 0  9995,2 53156  53.2198  71.5935 0002122  37.3530 322.7610 15.08837688 22872,6917.887,95.438,541.22,538.284,0.0
53156.0,STARLINK-4087,PAYLOAD,2022-12-14 06:23:41,15.08837647,0.0001894,53.2206,67.7286,46.2698,313.8451,5.6952e-05,6.18e-06,0.0,0 STARLINK-4087,1 53156U 22083AA  22348.26645503  .00000618  00000-0  56952-4 0  9991,2 53156  53.2206  67.7286 0001894  46.2698 313.8451 15.08837647 23631,6917.888000000001,95.438,541.063,538.442,0.0
53156.0,STARLINK-4087,PAYLOAD,2022-12-14 11:09:50,15.08840216,0.0001991,53.2188,66.8358,39.8029,320.3109,7.702e-05,9.38e-06,0.0,0 STARLINK-4087,1 53156U 22083AA  22348.46517337  .00000938  00000-0  77020-4 0  9990,2 53156  53.2188  66.8358 0001991  39.8029 320.3109 15.08840216 23037,6917.88,95.438,541.122,538.367,0.0
53156.0,STARLINK-4087,PAYLOAD,2022-12-15 11:00:37,15.08841113,0.0002059,53.2177,62.3761,29.5421,330.5687,0.00019159,2.762e-05,0.0,0 STARLINK-4087,1 53156U 22083AA  22349.45877104  .00002762  00000-0  19159-3 0  9996,2 53156  53.2177  62.3761 0002059  29.5421 330.5687 15.08841113 23819,6917.877,95.437,541.1659999999998,538.318,0.0
53156.0,STARLINK-4087,PAYLOAD,2022-12-15 12:36:01,15.08840246,0.0001948,53.2191,62.0796,43.3962,316.7183,0.00018376,2.638e-05,0.0,0 STARLINK-4087,1 53156U 22083AA  22349.52501310  .00002638  00000-0  18376-3 0  9999,2 53156  53.2191  62.0796 0001948  43.3962 316.7183 15.08840246 23194,6917.88,95.438,541.092,538.3969999999998,0.0
53156.0,STARLINK-4087,PAYLOAD,2022-12-15 17:22:10,15.08841451,0.0001979,53.2193,61.1875,41.8905,318.2238,0.00013339,1.835e-05,0.0,0 STARLINK-4087,1 53156U 22083AA  22349.72373399  .00001835  00000-0  13339-3 0  9997,2 53156  53.2193  61.1875 0001979  41.8905 318.2238 15.08841451 23229,6917.876,95.437,541.11,538.372,0.0
53156.0,STARLINK-4087,PAYLOAD,2022-12-16 10:51:24,15.0884612,0.0002125,53.2195,57.9171,35.6065,324.5069,0.00010724,1.419e-05,0.0,0 STARLINK-4087,1 53156U 22083AA  22350.45237099  .00001419  00000-0  10724-3 0  9998,2 53156  53.2195  57.9171 0002125  35.6065 324.5069 15.08846120 23337,6917.861999999999,95.437,541.197,538.257,0.0
53156.0,STARLINK-4087,PAYLOAD,2022-12-16 17:12:57,15.08845039,0.0002109,53.2182,56.7275,39.1492,320.9652,6.8626e-05,8.04e-06,0.0,0 STARLINK-4087,1 53156U 22083AA  22350.71733123  .00000804  00000-0  68626-4 0  9998,2 53156  53.2182  56.7275 0002109  39.1492 320.9652 15.08845039 24001,6917.865,95.437,541.189,538.271,0.0
53156.0,STARLINK-4087,PAYLOAD,2022-12-17 10:42:12,15.0884184,0.0002075,53.2193,53.4567,40.3722,319.7424,1.8168e-05,1e-08,0.0,0 STARLINK-4087,1 53156U 22083AA  22351.44597390  .00000001  00000-0  18168-4 0  9998,2 53156  53.2193  53.4567 0002075  40.3722 319.7424 15.08841840 23483,6917.875,95.437,541.175,538.304,0.0
53156.0,STARLINK-4087,PAYLOAD,2022-12-17 13:52:58,15.08844972,0.0002116,53.2191,52.862,41.3196,318.7956,3.9701e-05,3.44e-06,0.0,0 STARLINK-4087,1 53156U 22083AA  22351.57845118  .00000344  00000-0  39701-4 0  9992,2 53156  53.2191  52.8620 0002116  41.3196 318.7956 15.08844972 23507,6917.865,95.437,541.194,538.266,0.0
53156.0,STARLINK-4087,PAYLOAD,2022-12-18 04:11:26,15.0884519,0.000221,53.2184,50.1851,43.187,316.9295,2.2672e-05,7.3e-07,0.0,0 STARLINK-4087,1 53156U 22083AA  22352.17461118  .00000073  00000-0  22672-4 0  9991,2 53156  53.2184  50.1851 0002210  43.1870 316.9295 15.08845190 24229,6917.865,95.437,541.258,538.201,0.0
53156.0,STARLINK-4087,PAYLOAD,2022-12-18 10:32:59,15.08835841,0.0002147,53.2179,48.9945,41.3701,318.7454,-1.5830999999999998e-05,-5.400000000000002e-06,0.0,0 STARLINK-4087,1 53156U 22083AA  22352.43957826 -.00000540  00000-0 -15831-4 0  9996,2 53156  53.2179  48.9945 0002147  41.3701 318.7454 15.08835841 24267,6917.893,95.438,541.243,538.273,0.0
53156.0,STARLINK-4087,PAYLOAD,2022-12-18 13:43:46,15.0883384,0.0002083,53.2181,48.3998,40.3193,319.7953,-4.528600000000001e-05,-1.009e-05,0.0,0 STARLINK-4087,1 53156U 22083AA  22352.57206037 -.00001009  00000-0 -45286-4 0  9990,2 53156  53.2181  48.3998 0002083  40.3193 319.7953 15.08833840 23659,6917.899,95.438,541.205,538.323,0.0
53156.0,STARLINK-4087,PAYLOAD,2022-12-19 07:13:00,15.08836283,0.0002109,53.2183,45.1298,37.0604,323.0534,3.1523e-05,2.13e-06,0.0,0 STARLINK-4087,1 53156U 22083AA  22353.30069867  .00000213  00000-0  31523-4 0  9993,2 53156  53.2183  45.1298 0002109  37.0604 323.0534 15.08836283 23767,6917.892,95.438,541.216,538.298,0.0
53156.0,STARLINK-4087,PAYLOAD,2022-12-19 13:34:32,15.08841111,0.0002123,53.2186,43.9405,36.8102,323.3036,8.9618e-05,1.138e-05,0.0,0 STARLINK-4087,1 53156U 22083AA  22353.56565432  .00001138  00000-0  89618-4 0  9995,2 53156  53.2186  43.9405 0002123  36.8102 323.3036 15.08841111 24433,6917.877,95.437,541.211,538.273,0.0
53156.0,STARLINK-4087,PAYLOAD,2022-12-20 10:14:32,15.08844311,0.0002144,53.2187,40.0747,33.3967,326.716,0.00013537,1.867e-05,0.0,0 STARLINK-4087,1 53156U 22083AA  22354.42676840  .00001867  00000-0  13537-3 0  9992,2 53156  53.2187  40.0747 0002144  33.3967 326.7160 15.08844311 23939,6917.8669999999975,95.437,541.215,538.249,0.0
53156.0,STARLINK-4087,PAYLOAD,2022-12-21 03:43:47,15.0884187,0.000216,53.2197,36.8048,38.6524,321.4623,7.1565e-05,8.51e-06,0.0,0 STARLINK-4087,1 53156U 22083AA  22355.15541106  .00000851  00000-0  71565-4 0  9997,2 53156  53.2197  36.8048 0002160  38.6524 321.4623 15.08841870 24677,6917.875,95.437,541.234,538.245,0.0
53156.0,STARLINK-4087,PAYLOAD,2022-12-21 10:05:20,15.088363,0.0001945,53.2188,35.6149,34.0193,326.0924,-3.6477e-05,-8.69e-06,0.0,0 STARLINK-4087,1 53156U 22083AA  22355.42037752 -.00000869  00000-0 -36477-4 0  9998,2 53156  53.2188  35.6149 0001945  34.0193 326.0924 15.08836300 24710,6917.892,95.438,541.102,538.411,0.0
53156.0,STARLINK-4087,PAYLOAD,2022-12-22 11:31:30,15.08842301,0.0002011,53.2198,30.8584,36.2293,323.8836,3.8477e-06,-2.27e-06,0.0,0 STARLINK-4087,1 53156U 22083AA  22356.48021348 -.00000227  00000-0  38477-5 0  9999,2 53156  53.2198  30.8584 0002011  36.2293 323.8836 15.08842301 24244,6917.873000000001,95.437,541.13,538.347,0.0
53156.0,STARLINK-4087,PAYLOAD,2022-12-22 14:42:16,15.08839501,0.0002236,53.219,30.2625,34.8889,325.225,1.3133e-05,-7.9e-07,0.0,0 STARLINK-4087,1 53156U 22083AA  22356.61269545 -.00000079  00000-0  13133-4 0  9993,2 53156  53.2190  30.2625 0002236  34.8889 325.2250 15.08839501 24895,6917.882,95.438,541.294,538.2,0.0
53156.0,STARLINK-4087,PAYLOAD,2022-12-23 06:36:09,15.08824381,0.0002249,53.2202,27.2873,36.7827,323.3319,6.4827e-05,7.43e-06,0.0,0 STARLINK-4087,1 53156U 22083AA  22357.27510686  .00000743  00000-0  64827-4 0  9994,2 53156  53.2202  27.2873 0002249  36.7827 323.3319 15.08824381 24993,6917.928000000001,95.439,541.349,538.237,0.0
53156.0,STARLINK-4087,PAYLOAD,2022-12-23 11:22:18,15.08823884,0.0002185,53.2193,26.3965,32.6293,327.4834,2.6074e-05,1.27e-06,0.0,0 STARLINK-4087,1 53156U 22083AA  22357.47382994  .00000127  00000-0  26074-4 0  9993,2 53156  53.2193  26.3965 0002185  32.6293 327.4834 15.08823884 24393,6917.93,95.439,541.306,538.283,0.0
53156.0,STARLINK-4087,PAYLOAD,2022-12-23 19:19:14,15.08831904,0.0002143,53.2193,24.9099,33.2402,326.8725,7.7455e-05,9.44e-06,0.0,0 STARLINK-4087,1 53156U 22083AA  22357.80502636  .00000944  00000-0  77455-4 0  9993,2 53156  53.2193  24.9099 0002143  33.2402 326.8725 15.08831904 24448,6917.905,95.438,541.253,538.288,0.0
53156.0,STARLINK-4087,PAYLOAD,2022-12-24 01:40:46,15.08833649,0.000215,53.2197,23.7194,34.4155,325.6976,0.00012666,1.728e-05,0.0,0 STARLINK-4087,1 53156U 22083AA  22358.06998560  .00001728  00000-0  12666-3 0  9990,2 53156  53.2197  23.7194 0002150  34.4155 325.6976 15.08833649 25119,6917.9,95.438,541.252,538.2769999999998,0.0
